H1 CPF 01  gfz 2021 10 20 12  7931 terrasarx 
H2 0702601  6201 31698    2021 10 20 12 59 42 2021 10 25 00 00 42   120 1 1  0 0 0
H9
10 0 59510  35982.000000  0     606665.863  -2666038.001  -6329496.407
10 0 59510  36102.000000  0     119853.242  -1941342.035  -6614870.757
10 0 59510  36222.000000  0    -355983.145  -1174592.092  -6784835.132
10 0 59510  36342.000000  0    -811985.033   -379347.904  -6836466.684
10 0 59510  36462.000000  0   -1239882.677    430199.338  -6768878.642
10 0 59510  36582.000000  0   -1632141.441   1239473.717  -6583233.165
10 0 59510  36702.000000  0   -1982091.281   2033770.568  -6282723.423
10 0 59510  36822.000000  0   -2284038.379   2798517.039  -5872525.293
10 0 59510  36942.000000  0   -2533358.202   3519536.160  -5359718.185
10 0 59510  37062.000000  0   -2726567.364   4183308.941  -4753174.318
10 0 59510  37182.000000  0   -2861374.190   4777231.135  -4063416.368
10 0 59510  37302.000000  0   -2936705.114   5289857.926  -3302443.389
10 0 59510  37422.000000  0   -2952706.116   5711130.625  -2483529.724
10 0 59510  37542.000000  0   -2910720.544   6032583.938  -1620999.207
10 0 59510  37662.000000  0   -2813241.272   6247525.996   -729974.085
10 0 59510  37782.000000  0   -2663838.910   6351183.973    173892.538
10 0 59510  37902.000000  0   -2467069.333   6340817.072   1074697.092
10 0 59510  38022.000000  0   -2228358.184   6215787.380   1956577.238
10 0 59510  38142.000000  0   -1953866.498   5977584.896   2804001.148
10 0 59510  38262.000000  0   -1650343.095   5629810.229   3602048.364
10 0 59510  38382.000000  0   -1324967.395   5178115.902   4336677.721
10 0 59510  38502.000000  0    -985186.229   4630107.169   4994978.108
10 0 59510  38622.000000  0    -638546.652   3995204.117   5565395.677
10 0 59510  38742.000000  0    -292531.977   3284471.259   6037933.102
10 0 59510  38862.000000  0      45596.385   2510416.203   6404320.563
10 0 59510  38982.000000  0     368948.520   1686763.653   6658153.783
10 0 59510  39102.000000  0     671144.315    828208.299   6795000.495
10 0 59510  39222.000000  0     946437.546    -49849.010   6812471.939
10 0 59510  39342.000000  0    1189823.952   -931576.148   6710262.357
10 0 59510  39462.000000  0    1397131.847  -1800994.857   6490154.782
10 0 59510  39582.000000  0    1565093.880  -2642269.722   6155992.294
10 0 59510  39702.000000  0    1691398.746  -3439997.837   5713615.339
10 0 59510  39822.000000  0    1774721.633  -4179493.600   5170764.475
10 0 59510  39942.000000  0    1814733.645  -4847062.145   4536950.155
10 0 59510  40062.000000  0    1812090.715  -5430259.364   3823292.941
10 0 59510  40182.000000  0    1768401.044  -5918133.958   3042331.429
10 0 59510  40302.000000  0    1686170.256  -6301441.449   2207801.324
10 0 59510  40422.000000  0    1568727.790  -6572827.432   1334392.479
10 0 59510  40542.000000  0    1420135.245  -6726976.845    437486.124
10 0 59510  40662.000000  0    1245078.163  -6760723.723   -467122.988
10 0 59510  40782.000000  0    1048743.318  -6673118.832  -1363515.387
10 0 59510  40902.000000  0     836685.836  -6465448.144  -2235937.151
10 0 59510  41022.000000  0     614690.096  -6141206.743  -3069082.981
10 0 59510  41142.000000  0     388628.997  -5706030.604  -3848368.890
10 0 59510  41262.000000  0     164323.187  -5167586.668  -4560188.969
10 0 59510  41382.000000  0     -52595.954  -4535424.446  -5192149.658
10 0 59510  41502.000000  0    -256815.709  -3820795.273  -5733278.807
10 0 59510  41622.000000  0    -443461.264  -3036442.342  -6174207.072
10 0 59510  41742.000000  0    -608202.255  -2196367.028  -6507319.087
10 0 59510  41862.000000  0    -747345.131  -1315576.266  -6726873.496
10 0 59510  41982.000000  0    -857909.801   -409816.148  -6829092.117
10 0 59510  42102.000000  0    -937689.174    504705.740  -6812217.912
10 0 59510  42222.000000  0    -985291.058   1411603.293  -6676540.768
10 0 59510  42342.000000  0   -1000162.052   2294597.973  -6424393.036
10 0 59510  42462.000000  0    -982592.886   3137803.781  -6060114.404
10 0 59510  42582.000000  0    -933705.238   3926009.673  -5589986.367
10 0 59510  42702.000000  0    -855419.982   4644953.233  -5022134.092
10 0 59510  42822.000000  0    -750407.498   5281582.107  -4366397.817
10 0 59510  42942.000000  0    -622020.923   5824298.378  -3634172.438
10 0 59510  43062.000000  0    -474212.880   6263179.346  -2838217.498
10 0 59510  43182.000000  0    -311437.251   6590170.672  -1992440.762
10 0 59510  43302.000000  0    -138538.355   6799246.978  -1111657.002
10 0 59510  43422.000000  0      39370.303   6886534.702   -211326.693
10 0 59510  43542.000000  0     217035.154   6850393.649    692720.507
10 0 59510  43662.000000  0     389195.964   6691454.356   1584572.338
10 0 59510  43782.000000  0     550719.229   6412608.405   2448523.673
10 0 59510  43902.000000  0     696727.759   6018952.485   3269360.749
10 0 59510  44022.000000  0     822724.210   5517690.237   4032635.478
10 0 59510  44142.000000  0     924707.539   4917994.533   4724924.797
10 0 59510  44262.000000  0     999274.612   4230826.854   5334072.325
10 0 59510  44382.000000  0    1043708.167   3468725.078   5849396.472
10 0 59510  44502.000000  0    1056049.593   2645567.444   6261873.507
10 0 59510  44622.000000  0    1035152.495   1776313.028   6564290.355
10 0 59510  44742.000000  0     980717.914    876725.212   6751364.884
10 0 59510  44862.000000  0     893310.402    -36916.331   6819831.606
10 0 59510  44982.000000  0     774354.539   -948108.786   6768495.380
10 0 59510  45102.000000  0     626111.644  -1840424.157   6598252.163
10 0 59510  45222.000000  0     451636.946  -2697805.161   6312074.592
10 0 59510  45342.000000  0     254718.005  -3504855.854   5914963.146
10 0 59510  45462.000000  0      39795.880  -4247119.141   5413861.115
10 0 59510  45582.000000  0    -188129.166  -4911337.605   4817539.779
10 0 59510  45702.000000  0    -423606.504  -5485697.274   4136453.335
10 0 59510  45822.000000  0    -660857.942  -5960048.678   3382560.006
10 0 59510  45942.000000  0    -893911.110  -6326095.913   2569113.237
10 0 59510  46062.000000  0   -1116739.011  -6577551.047   1710427.559
10 0 59510  46182.000000  0   -1323403.530  -6710251.470    821623.845
10 0 59510  46302.000000  0   -1508200.930  -6722235.067    -81644.975
10 0 59510  46422.000000  0   -1665801.866  -6613769.197   -983478.749
10 0 59510  46542.000000  0   -1791383.984  -6387335.096  -1868018.639
10 0 59510  46662.000000  0   -1880754.212  -6047568.488  -2719733.564
10 0 59510  46782.000000  0   -1930457.834  -5601157.622  -3523699.095
10 0 59510  46902.000000  0   -1937871.161  -5056700.827  -4265862.149
10 0 59510  47022.000000  0   -1901275.447  -4424528.806  -4933285.082
10 0 59510  47142.000000  0   -1819911.128  -3716497.909  -5514365.496
10 0 59510  47262.000000  0   -1694011.638  -2945759.478  -5999029.776
10 0 59510  47382.000000  0   -1524816.037  -2126509.538  -6378898.154
10 0 59510  47502.000000  0   -1314560.402  -1273723.981  -6647418.062
10 0 59510  47622.000000  0   -1066449.292   -402885.827  -6799965.855
10 0 59510  47742.000000  0    -784607.649    470291.812  -6833917.552
10 0 59510  47862.000000  0    -474012.643   1330142.398  -6748688.514
10 0 59510  47982.000000  0    -140407.974   2161319.686  -6545742.201
10 0 59510  48102.000000  0     209798.291   2949064.813  -6228568.928
10 0 59510  48222.000000  0     569653.411   3679465.329  -5802633.821
10 0 59510  48342.000000  0     931793.936   4339699.885  -5275291.116
10 0 59510  48462.000000  0    1288591.226   4918265.302  -4655668.806
10 0 59510  48582.000000  0    1632307.656   5405183.993  -3954521.992
10 0 59510  48702.000000  0    1955260.054   5792184.920  -3184055.063
10 0 59510  48822.000000  0    2249986.643   6072854.829  -2357716.552
10 0 59510  48942.000000  0    2509414.490   6242756.723  -1489968.044
10 0 59510  49062.000000  0    2727022.958   6299510.846   -596029.977
10 0 59510  49182.000000  0    2896998.656   6242834.413    308390.198
10 0 59510  49302.000000  0    3014377.782   6074538.972   1207380.644
10 0 59510  49422.000000  0    3075172.329   5798486.534   2085112.759
10 0 59510  49542.000000  0    3076476.792   5420504.575   2926128.323
10 0 59510  49662.000000  0    3016552.933   4948261.529   3715619.639
10 0 59510  49782.000000  0    2894890.831   4391106.689   4439696.251
10 0 59510  49902.000000  0    2712242.391   3759877.728   5085634.709
10 0 59510  50022.000000  0    2470626.663   3066679.764   5642101.075
10 0 59510  50142.000000  0    2173311.505   2324646.503   6099344.777
10 0 59510  50262.000000  0    1824770.125   1547686.621   6449365.411
10 0 59510  50382.000000  0    1430611.805    750218.130   6686047.070
10 0 59510  50502.000000  0     997489.599    -53100.686   6805257.694
10 0 59510  50622.000000  0     532987.481   -847639.184   6804917.294
10 0 59510  50742.000000  0      45487.295  -1619061.109   6685033.101
10 0 59510  50862.000000  0    -455982.682  -2353583.071   6447699.002
10 0 59510  50982.000000  0    -961914.648  -3038221.249   6097060.349
10 0 59510  51102.000000  0   -1462499.140  -3661021.260   5639244.201
10 0 59510  51222.000000  0   -1947812.891  -4211268.835   5082259.405
10 0 59510  51342.000000  0   -2408016.053  -4679679.823   4435864.792
10 0 59510  51462.000000  0   -2833553.998  -5058564.874   3711403.874
10 0 59510  51582.000000  0   -3215357.428  -5341963.636   2921607.424
10 0 59510  51702.000000  0   -3545035.623  -5525744.267   2080369.019
10 0 59510  51822.000000  0   -3815059.817  -5607667.866   1202498.229
10 0 59510  51942.000000  0   -4018932.432  -5587415.305    303454.498
10 0 59510  52062.000000  0   -4151337.298  -5466575.302   -600932.375
10 0 59510  52182.000000  0   -4208267.042  -5248594.094  -1494750.061
10 0 59510  52302.000000  0   -4187123.602  -4938686.630  -2362293.068
10 0 59510  52422.000000  0   -4086789.499  -4543712.117  -3188346.042
99
